CCSDS_OMM_VERS = 2.0
CREATION_DATE  = 
ORIGINATOR     = 

OBJECT_NAME    = SL-8 R/B
OBJECT_ID      = 1985-006B
CENTER_NAME    = EARTH
REF_FRAME      = TEME
TIME_SYSTEM    = UTC
MEAN_ELEMENT_THEORY = SGP/SGP4

EPOCH          = 2026-03-07T15:21:58.559904
MEAN_MOTION    = 14.37780815
ECCENTRICITY   = .00185362
INCLINATION    = 74.0432
RA_OF_ASC_NODE = 264.9199
ARG_OF_PERICENTER = 183.1962
MEAN_ANOMALY   = 238.4515

EPHEMERIS_TYPE = 0
CLASSIFICATION_TYPE = U
NORAD_CAT_ID   = 15483
ELEMENT_SET_NO = 999
REV_AT_EPOCH   = 15373
BSTAR          = .1000481E-3
MEAN_MOTION_DOT = .276E-5
MEAN_MOTION_DDOT = 0

CCSDS_OMM_VERS = 2.0
CREATION_DATE  = 
ORIGINATOR     = 

OBJECT_NAME    = SL-12 R/B(2)
OBJECT_ID      = 1985-042D
CENTER_NAME    = EARTH
REF_FRAME      = TEME
TIME_SYSTEM    = UTC
MEAN_ELEMENT_THEORY = SGP/SGP4

EPOCH          = 2026-03-07T12:32:53.284416
MEAN_MOTION    = 14.21981894
ECCENTRICITY   = .00333424
INCLINATION    = 71.1062
RA_OF_ASC_NODE = 92.3071
ARG_OF_PERICENTER = 131.7156
MEAN_ANOMALY   = 337.4150

EPHEMERIS_TYPE = 0
CLASSIFICATION_TYPE = U
NORAD_CAT_ID   = 15772
ELEMENT_SET_NO = 999
REV_AT_EPOCH   = 11408
BSTAR          = .47679519E-4
MEAN_MOTION_DOT = .58E-6
MEAN_MOTION_DDOT = 0

CCSDS_OMM_VERS = 2.0
CREATION_DATE  = 
ORIGINATOR     = 

OBJECT_NAME    = SL-14 R/B
OBJECT_ID      = 1985-069B
CENTER_NAME    = EARTH
REF_FRAME      = TEME
TIME_SYSTEM    = UTC
MEAN_ELEMENT_THEORY = SGP/SGP4

EPOCH          = 2026-03-07T14:11:11.093568
MEAN_MOTION    = 14.86430494
ECCENTRICITY   = .00182817
INCLINATION    = 82.5282
RA_OF_ASC_NODE = 26.9059
ARG_OF_PERICENTER = 194.7886
MEAN_ANOMALY   = 165.2799

EPHEMERIS_TYPE = 0
CLASSIFICATION_TYPE = U
NORAD_CAT_ID   = 15945
ELEMENT_SET_NO = 999
REV_AT_EPOCH   = 17252
BSTAR          = .86699551E-4
MEAN_MOTION_DOT = .792E-5
MEAN_MOTION_DDOT = 0

CCSDS_OMM_VERS = 2.0
CREATION_DATE  = 
ORIGINATOR     = 

OBJECT_NAME    = SL-16 R/B
OBJECT_ID      = 1985-097B
CENTER_NAME    = EARTH
REF_FRAME      = TEME
TIME_SYSTEM    = UTC
MEAN_ELEMENT_THEORY = SGP/SGP4

EPOCH          = 2026-03-07T15:59:20.790240
MEAN_MOTION    = 14.16599316
ECCENTRICITY   = .0009942
INCLINATION    = 71.0032
RA_OF_ASC_NODE = 144.8144
ARG_OF_PERICENTER = 262.1897
MEAN_ANOMALY   = 209.0189

EPHEMERIS_TYPE = 0
CLASSIFICATION_TYPE = U
NORAD_CAT_ID   = 16182
ELEMENT_SET_NO = 999
REV_AT_EPOCH   = 8694
BSTAR          = -.5845719E-4
MEAN_MOTION_DOT = -.165E-5
MEAN_MOTION_DDOT = 0

CCSDS_OMM_VERS = 2.0
CREATION_DATE  = 
ORIGINATOR     = 

OBJECT_NAME    = SL-14 R/B
OBJECT_ID      = 1986-006B
CENTER_NAME    = EARTH
REF_FRAME      = TEME
TIME_SYSTEM    = UTC
MEAN_ELEMENT_THEORY = SGP/SGP4

EPOCH          = 2026-03-07T15:15:50.987520
MEAN_MOTION    = 14.86812011
ECCENTRICITY   = .00750805
INCLINATION    = 82.5234
RA_OF_ASC_NODE = 261.6707
ARG_OF_PERICENTER = 279.7520
MEAN_ANOMALY   = 79.5224

EPHEMERIS_TYPE = 0
CLASSIFICATION_TYPE = U
NORAD_CAT_ID   = 16496
ELEMENT_SET_NO = 999
REV_AT_EPOCH   = 14890
BSTAR          = .9085356E-4
MEAN_MOTION_DOT = .877E-5
MEAN_MOTION_DDOT = 0

CCSDS_OMM_VERS = 2.0
CREATION_DATE  = 
ORIGINATOR     = 

OBJECT_NAME    = COSMOS 1743
OBJECT_ID      = 1986-034A
CENTER_NAME    = EARTH
REF_FRAME      = TEME
TIME_SYSTEM    = UTC
MEAN_ELEMENT_THEORY = SGP/SGP4

EPOCH          = 2026-03-07T12:33:24.068736
MEAN_MOTION    = 15.58380737
ECCENTRICITY   = .00017767
INCLINATION    = 82.5293
RA_OF_ASC_NODE = 76.1042
ARG_OF_PERICENTER = 312.9052
MEAN_ANOMALY   = 47.2054

EPHEMERIS_TYPE = 0
CLASSIFICATION_TYPE = U
NORAD_CAT_ID   = 16719
ELEMENT_SET_NO = 999
REV_AT_EPOCH   = 17991
BSTAR          = .65401851E-3
MEAN_MOTION_DOT = .49929E-3
MEAN_MOTION_DDOT = 0

CCSDS_OMM_VERS = 2.0
CREATION_DATE  = 
ORIGINATOR     = 

OBJECT_NAME    = SL-14 R/B
OBJECT_ID      = 1986-046B
CENTER_NAME    = EARTH
REF_FRAME      = TEME
TIME_SYSTEM    = UTC
MEAN_ELEMENT_THEORY = SGP/SGP4

EPOCH          = 2026-03-07T12:24:50.723136
MEAN_MOTION    = 14.85588210
ECCENTRICITY   = .00218393
INCLINATION    = 82.4782
RA_OF_ASC_NODE = 82.2350
ARG_OF_PERICENTER = 232.9238
MEAN_ANOMALY   = 126.9982

EPHEMERIS_TYPE = 0
CLASSIFICATION_TYPE = U
NORAD_CAT_ID   = 16792
ELEMENT_SET_NO = 999
REV_AT_EPOCH   = 12608
BSTAR          = .74377585E-4
MEAN_MOTION_DOT = .67E-5
MEAN_MOTION_DDOT = 0

CCSDS_OMM_VERS = 2.0
CREATION_DATE  = 
ORIGINATOR     = 

OBJECT_NAME    = SL-14 R/B
OBJECT_ID      = 1986-055B
CENTER_NAME    = EARTH
REF_FRAME      = TEME
TIME_SYSTEM    = UTC
MEAN_ELEMENT_THEORY = SGP/SGP4

EPOCH          = 2026-03-07T15:46:42.510144
MEAN_MOTION    = 14.85640787
ECCENTRICITY   = .00183515
INCLINATION    = 82.5205
RA_OF_ASC_NODE = 128.5844
ARG_OF_PERICENTER = 343.4986
MEAN_ANOMALY   = 130.3197

EPHEMERIS_TYPE = 0
CLASSIFICATION_TYPE = U
NORAD_CAT_ID   = 16882
ELEMENT_SET_NO = 999
REV_AT_EPOCH   = 11906
BSTAR          = .68666432E-4
MEAN_MOTION_DOT = .62E-5
MEAN_MOTION_DDOT = 0

CCSDS_OMM_VERS = 2.0
CREATION_DATE  = 
ORIGINATOR     = 

OBJECT_NAME    = AJISAI (EGS)
OBJECT_ID      = 1986-061A
CENTER_NAME    = EARTH
REF_FRAME      = TEME
TIME_SYSTEM    = UTC
MEAN_ELEMENT_THEORY = SGP/SGP4

EPOCH          = 2026-03-07T15:17:15.110880
MEAN_MOTION    = 12.44515665
ECCENTRICITY   = .00112571
INCLINATION    = 50.0080
RA_OF_ASC_NODE = 99.6602
ARG_OF_PERICENTER = 281.7221
MEAN_ANOMALY   = 190.0520

EPHEMERIS_TYPE = 0
CLASSIFICATION_TYPE = U
NORAD_CAT_ID   = 16908
ELEMENT_SET_NO = 999
REV_AT_EPOCH   = 46774
BSTAR          = .54288457E-4
MEAN_MOTION_DOT = -.9E-6
MEAN_MOTION_DDOT = 0

CCSDS_OMM_VERS = 2.0
CREATION_DATE  = 
ORIGINATOR     = 

OBJECT_NAME    = SL-14 R/B
OBJECT_ID      = 1987-024B
CENTER_NAME    = EARTH
REF_FRAME      = TEME
TIME_SYSTEM    = UTC
MEAN_ELEMENT_THEORY = SGP/SGP4

EPOCH          = 2026-03-07T13:14:05.114112
MEAN_MOTION    = 14.86129812
ECCENTRICITY   = .0016677
INCLINATION    = 82.5249
RA_OF_ASC_NODE = 94.7740
ARG_OF_PERICENTER = 267.6902
MEAN_ANOMALY   = 92.2405

EPHEMERIS_TYPE = 0
CLASSIFICATION_TYPE = U
NORAD_CAT_ID   = 17567
ELEMENT_SET_NO = 999
REV_AT_EPOCH   = 8781
BSTAR          = .67386233E-4
MEAN_MOTION_DOT = .616E-5
MEAN_MOTION_DDOT = 0

CCSDS_OMM_VERS = 2.0
CREATION_DATE  = 
ORIGINATOR     = 

OBJECT_NAME    = COSMOS 1833
OBJECT_ID      = 1987-027A
CENTER_NAME    = EARTH
REF_FRAME      = TEME
TIME_SYSTEM    = UTC
MEAN_ELEMENT_THEORY = SGP/SGP4

EPOCH          = 2026-03-07T04:05:11.415264
MEAN_MOTION    = 14.13055413
ECCENTRICITY   = .00243924
INCLINATION    = 70.9229
RA_OF_ASC_NODE = 331.3137
ARG_OF_PERICENTER = 218.0534
MEAN_ANOMALY   = 141.8865

EPHEMERIS_TYPE = 0
CLASSIFICATION_TYPE = U
NORAD_CAT_ID   = 17589
ELEMENT_SET_NO = 999
REV_AT_EPOCH   = 996
BSTAR          = -.53371697E-4
MEAN_MOTION_DOT = -.148E-5
MEAN_MOTION_DDOT = 0

CCSDS_OMM_VERS = 2.0
CREATION_DATE  = 
ORIGINATOR     = 

OBJECT_NAME    = SL-16 R/B
OBJECT_ID      = 1987-027B
CENTER_NAME    = EARTH
REF_FRAME      = TEME
TIME_SYSTEM    = UTC
MEAN_ELEMENT_THEORY = SGP/SGP4

EPOCH          = 2026-03-07T15:29:16.982016
MEAN_MOTION    = 14.17165791
ECCENTRICITY   = .00035447
INCLINATION    = 71.0011
RA_OF_ASC_NODE = 280.8036
ARG_OF_PERICENTER = 147.1364
MEAN_ANOMALY   = 212.9981

EPHEMERIS_TYPE = 0
CLASSIFICATION_TYPE = U
NORAD_CAT_ID   = 17590
ELEMENT_SET_NO = 999
REV_AT_EPOCH   = 1505
BSTAR          = .5812687E-5
MEAN_MOTION_DOT = -.36E-6
MEAN_MOTION_DDOT = 0

CCSDS_OMM_VERS = 2.0
CREATION_DATE  = 
ORIGINATOR     = 

OBJECT_NAME    = SL-14 R/B
OBJECT_ID      = 1987-038B
CENTER_NAME    = EARTH
REF_FRAME      = TEME
TIME_SYSTEM    = UTC
MEAN_ELEMENT_THEORY = SGP/SGP4

EPOCH          = 2026-03-07T14:42:16.193088
MEAN_MOTION    = 14.85367354
ECCENTRICITY   = .00195078
INCLINATION    = 82.5004
RA_OF_ASC_NODE = 298.7647
ARG_OF_PERICENTER = 167.1109
MEAN_ANOMALY   = 193.0610

EPHEMERIS_TYPE = 0
CLASSIFICATION_TYPE = U
NORAD_CAT_ID   = 17912
ELEMENT_SET_NO = 999
REV_AT_EPOCH   = 7892
BSTAR          = .64632821E-4
MEAN_MOTION_DOT = .582E-5
MEAN_MOTION_DDOT = 0

CCSDS_OMM_VERS = 2.0
CREATION_DATE  = 
ORIGINATOR     = 

OBJECT_NAME    = COSMOS 1844
OBJECT_ID      = 1987-041A
CENTER_NAME    = EARTH
REF_FRAME      = TEME
TIME_SYSTEM    = UTC
MEAN_ELEMENT_THEORY = SGP/SGP4

EPOCH          = 2026-03-07T08:23:20.833152
MEAN_MOTION    = 14.14552801
ECCENTRICITY   = .00298696
INCLINATION    = 70.8997
RA_OF_ASC_NODE = 39.1107
ARG_OF_PERICENTER = 21.2759
MEAN_ANOMALY   = 338.9597

EPHEMERIS_TYPE = 0
CLASSIFICATION_TYPE = U
NORAD_CAT_ID   = 17973
ELEMENT_SET_NO = 999
REV_AT_EPOCH   = 325
BSTAR          = -.36665316E-4
MEAN_MOTION_DOT = -.119E-5
MEAN_MOTION_DDOT = 0

CCSDS_OMM_VERS = 2.0
CREATION_DATE  = 
ORIGINATOR     = 

OBJECT_NAME    = SL-14 R/B
OBJECT_ID      = 1987-055B
CENTER_NAME    = EARTH
REF_FRAME      = TEME
TIME_SYSTEM    = UTC
MEAN_ELEMENT_THEORY = SGP/SGP4

EPOCH          = 2026-03-07T06:04:38.260704
MEAN_MOTION    = 14.85626321
ECCENTRICITY   = .0021362
INCLINATION    = 82.5030
RA_OF_ASC_NODE = 351.3269
ARG_OF_PERICENTER = 25.6858
MEAN_ANOMALY   = 334.5414

EPHEMERIS_TYPE = 0
CLASSIFICATION_TYPE = U
NORAD_CAT_ID   = 18153
ELEMENT_SET_NO = 999
REV_AT_EPOCH   = 6957
BSTAR          = .92474E-4
MEAN_MOTION_DOT = .828E-5
MEAN_MOTION_DDOT = 0

